[{"OBJECT_NAME":"YAM-7","OBJECT_ID":"2024-149AN","EPOCH":"2026-03-09T17:13:55.117920","MEAN_MOTION":15.30304554,"ECCENTRICITY":0.00019733,"INCLINATION":97.3828,"RA_OF_ASC_NODE":149.4631,"ARG_OF_PERICENTER":296.5121,"MEAN_ANOMALY":63.5918,"EPHEMERIS_TYPE":0,"CLASSIFICATION_TYPE":"U","NORAD_CAT_ID":60504,"ELEMENT_SET_NO":999,"REV_AT_EPOCH":8683,"BSTAR":0.00030984439,"MEAN_MOTION_DOT":9.009e-5,"MEAN_MOTION_DDOT":0},{"OBJECT_NAME":"STARLINK-34018","OBJECT_ID":"2025-093A","EPOCH":"2026-03-09T10:44:08.995776","MEAN_MOTION":15.275551,"ECCENTRICITY":0.00022877,"INCLINATION":43.0028,"RA_OF_ASC_NODE":79.3993,"ARG_OF_PERICENTER":280.0045,"MEAN_ANOMALY":80.0548,"EPHEMERIS_TYPE":0,"CLASSIFICATION_TYPE":"U","NORAD_CAT_ID":63836,"ELEMENT_SET_NO":999,"REV_AT_EPOCH":4793,"BSTAR":0.0012625987,"MEAN_MOTION_DOT":0.0003462,"MEAN_MOTION_DDOT":0}]
